ONEWEB-0435             
1 51632U 22012L   24214.95605932  .00000587  00000+0  16441-2 0  9993
2 51632  87.8970 172.3708 0001870  71.2302 288.9028 13.10371966119709
ONEWEB-0436             
1 51633U 22012M   24214.87555159  .00000088  00000+0  19401-3 0  9996
2 51633  87.9187 142.1233 0001957  72.4262 287.7083 13.17652294123563
ONEWEB-0438             
1 51634U 22012N   24214.93945253  .00000395  00000+0  10948-2 0  9999
2 51634  87.8975 172.3746 0002302  81.1332 279.0056 13.10376252119730
ONEWEB-0439             
1 51635U 22012P   24214.94277434  .00000519  00000+0  14495-2 0  9999
2 51635  87.8977 172.3592 0002065  79.3658 280.7702 13.10374552119714
ONEWEB-0442             
1 51636U 22012Q   24215.17203987 -.00000065  00000+0 -19995-3 0  9997
2 51636  87.9192 142.1012 0002628  91.6473 268.4960 13.17648784124885
ONEWEB-0443             
1 51637U 22012R   24215.19061719  .00000092  00000+0  20505-3 0  9992
2 51637  87.9195 142.1058 0002142  64.8965 295.2388 13.17649900124937
ONEWEB-0444             
1 51638U 22012S   24215.39095051  .00000019  00000+0  18309-4 0  9990
2 51638  87.8974 172.2902 0001999  75.1186 285.0163 13.10376442121074
ONEWEB-0445             
1 51639U 22012T   24215.18347257  .00000667  00000+0  18742-2 0  9994
2 51639  87.8963 172.3011 0002158  89.5329 270.6046 13.10372952121040
